<?xml version='1.0' encoding='utf-8'?>
<osm generator="OSM Conflator 1.4.0" version="0.6"><changeset><tag k="source" v="Grenoble-Alpes Métropole" /><tag k="created_by" v="OSM Conflator 1.4.0" /><tag k="type" v="import" /></changeset><node action="modify" id="2282421127" lat="45.1256164" lon="5.6809923" version="2"><tag k="amenity" v="recycling" /><tag k="recycling:cans" v="yes" /><tag k="recycling:glass_bottles" v="yes" /><tag k="recycling:paper" v="yes" /><tag k="recycling:scrap_metal" v="yes" /><tag k="recycling_type" v="container" /><tag k="operator" v="La Métro" /><tag k="recycling:glass" v="yes" /><tag k="ref:FR:METRO:PAV" v="1071" /></node><node action="modify" id="3169369581" lat="45.1330117" lon="5.6669379" version="1"><tag k="amenity" v="recycling" /><tag k="recycling:glass" v="yes" /><tag k="recycling_type" v="container" /><tag k="operator" v="La Métro" /><tag k="ref:FR:METRO:PAV" v="14" /></node><node action="modify" id="3366534037" lat="45.1130041" lon="5.6716775" version="2"><tag k="addr:city" v="Claix" /><tag k="addr:postcode" v="38640" /><tag k="addr:street" v="Chemin de Risset" /><tag k="amenity" v="recycling" /><tag k="name" v="Déchèterie de Claix" /><tag k="recycling_type" v="container" /><tag k="operator" v="La Métro" /><tag k="recycling:glass" v="yes" /><tag k="ref:FR:METRO:PAV" v="5" /></node><node action="modify" id="2537317728" lat="45.117267" lon="5.6586629" version="2"><tag k="amenity" v="recycling" /><tag k="recycling:glass_bottles" v="yes" /><tag k="recycling_type" v="container" /><tag k="operator" v="La Métro" /><tag k="recycling:glass" v="yes" /><tag k="ref:FR:METRO:PAV" v="11" /></node><node id="-1" lat="45.12236" lon="5.691679" version="1"><tag k="amenity" v="recycling" /><tag k="recycling_type" v="container" /><tag k="operator" v="La Métro" /><tag k="recycling:glass" v="yes" /><tag k="ref:FR:METRO:PAV" v="1" /></node><node id="-2" lat="45.111546" lon="5.671984" version="1"><tag k="amenity" v="recycling" /><tag k="recycling_type" v="container" /><tag k="operator" v="La Métro" /><tag k="recycling:glass" v="yes" /><tag k="ref:FR:METRO:PAV" v="10" /></node><node id="-3" lat="45.112223" lon="5.681624" version="1"><tag k="amenity" v="recycling" /><tag k="recycling_type" v="container" /><tag k="operator" v="La Métro" /><tag k="recycling:glass" v="yes" /><tag k="ref:FR:METRO:PAV" v="1064" /></node><node id="-4" lat="45.118476" lon="5.688895" version="1"><tag k="amenity" v="recycling" /><tag k="recycling_type" v="container" /><tag k="operator" v="La Métro" /><tag k="recycling:glass" v="yes" /><tag k="ref:FR:METRO:PAV" v="1072" /></node><node id="-5" lat="45.109544" lon="5.665879" version="1"><tag k="amenity" v="recycling" /><tag k="recycling_type" v="container" /><tag k="operator" v="La Métro" /><tag k="recycling:glass" v="yes" /><tag k="ref:FR:METRO:PAV" v="1267" /></node><node id="-6" lat="45.118902" lon="5.670659" version="1"><tag k="amenity" v="recycling" /><tag k="recycling_type" v="container" /><tag k="operator" v="La Métro" /><tag k="recycling:glass" v="yes" /><tag k="ref:FR:METRO:PAV" v="13" /></node><node id="-7" lat="45.11881" lon="5.693242" version="1"><tag k="amenity" v="recycling" /><tag k="recycling_type" v="container" /><tag k="operator" v="La Métro" /><tag k="recycling:glass" v="yes" /><tag k="ref:FR:METRO:PAV" v="4" /></node><node id="-8" lat="45.116008" lon="5.692435" version="1"><tag k="amenity" v="recycling" /><tag k="recycling_type" v="container" /><tag k="operator" v="La Métro" /><tag k="recycling:glass" v="yes" /><tag k="ref:FR:METRO:PAV" v="8" /></node></osm>